{
  "type": "FeatureCollection",
  "features": [
    {
      "type": "Feature",
      "properties": {
        "norad_id": 44231,
        "name": "BEIDOU-2 G8 (C01)",
        "group": "gnss",
        "lat": -1.6776101290617242,
        "lon": -6.080908760652147,
        "alt_km": 35752.827394884975,
        "timestamp": "2025-12-25T07:41:09.967049+00:00",
        "meta_object_name": "BEIDOU-2 G8 (C01)",
        "meta_object_id": "2019-027A",
        "meta_epoch": "2025-12-24T22:20:47.936832",
        "meta_mean_motion": 1.0027457,
        "meta_eccentricity": 0.00082946,
        "meta_inclination": 1.6908,
        "meta_ra_of_asc_node": 74.7358,
        "meta_arg_of_pericenter": 259.0512,
        "meta_mean_anomaly": 239.621,
        "meta_ephemeris_type": 0,
        "meta_classification_type": "U",
        "meta_norad_cat_id": 44231,
        "meta_element_set_no": 999,
        "meta_rev_at_epoch": 2433,
        "meta_bstar": 0,
        "meta_mean_motion_dot": -2.26e-06,
        "meta_mean_motion_ddot": 0,
        "tle_line1": "1 44231U 19027A   25358.93111038 -.00000226  00000+0  00000+0 0  9991",
        "tle_line2": "2 44231   1.6908  74.7358 0008294 259.0512 239.6210  1.00274570 24332"
      },
      "geometry": {
        "type": "Point",
        "coordinates": [
          -6.080908760652147,
          -1.6776101290617242
        ]
      }
    },
    {
      "type": "Feature",
      "properties": {
        "norad_id": 44299,
        "name": "COSMOS 2534 (758)",
        "group": "gnss",
        "lat": -40.38857829657317,
        "lon": 174.35253656068673,
        "alt_km": 19115.944969748867,
        "timestamp": "2025-12-25T07:41:09.967060+00:00",
        "meta_object_name": "COSMOS 2534 (758)",
        "meta_object_id": "2019-030A",
        "meta_epoch": "2025-12-24T12:36:57.060288",
        "meta_mean_motion": 2.13102193,
        "meta_eccentricity": 0.00086113,
        "meta_inclination": 64.3664,
        "meta_ra_of_asc_node": 198.4956,
        "meta_arg_of_pericenter": 283.7318,
        "meta_mean_anomaly": 140.7194,
        "meta_ephemeris_type": 0,
        "meta_classification_type": "U",
        "meta_norad_cat_id": 44299,
        "meta_element_set_no": 999,
        "meta_rev_at_epoch": 5120,
        "meta_bstar": 0,
        "meta_mean_motion_dot": 9.9e-07,
        "meta_mean_motion_ddot": 0,
        "tle_line1": "1 44299U 19030A   25358.52566042  .00000099  00000+0  00000+0 0  9990",
        "tle_line2": "2 44299  64.3664 198.4956 0008611 283.7318 140.7194  2.13102193 51205"
      },
      "geometry": {
        "type": "Point",
        "coordinates": [
          174.35253656068673,
          -40.38857829657317
        ]
      }
    },
    {
      "type": "Feature",
      "properties": {
        "norad_id": 44337,
        "name": "BEIDOU-3 IGSO-2 (C39)",
        "group": "gnss",
        "lat": 9.719336466163146,
        "lon": -26.463476205663024,
        "alt_km": 35654.99306272179,
        "timestamp": "2025-12-25T07:41:09.967077+00:00",
        "meta_object_name": "BEIDOU-3 IGSO-2 (C39)",
        "meta_object_id": "2019-035A",
        "meta_epoch": "2025-12-24T20:30:50.966784",
        "meta_mean_motion": 1.00267539,
        "meta_eccentricity": 0.00378522,
        "meta_inclination": 55.2292,
        "meta_ra_of_asc_node": 160.3949,
        "meta_arg_of_pericenter": 202.5754,
        "meta_mean_anomaly": 157.6854,
        "meta_ephemeris_type": 0,
        "meta_classification_type": "U",
        "meta_norad_cat_id": 44337,
        "meta_element_set_no": 999,
        "meta_rev_at_epoch": 2392,
        "meta_bstar": 0,
        "meta_mean_motion_dot": -7e-07,
        "meta_mean_motion_ddot": 0,
        "tle_line1": "1 44337U 19035A   25358.85475656 -.00000070  00000+0  00000+0 0  9994",
        "tle_line2": "2 44337  55.2292 160.3949 0037852 202.5754 157.6854  1.00267539 23925"
      },
      "geometry": {
        "type": "Point",
        "coordinates": [
          -26.463476205663024,
          9.719336466163146
        ]
      }
    },
    {
      "type": "Feature",
      "properties": {
        "norad_id": 44506,
        "name": "GPS BIII-2  (PRN 18)",
        "group": "gnss",
        "lat": 43.45786372303522,
        "lon": 117.78681517317818,
        "alt_km": 20136.28456088056,
        "timestamp": "2025-12-25T07:41:09.967090+00:00",
        "meta_object_name": "GPS BIII-2  (PRN 18)",
        "meta_object_id": "2019-056A",
        "meta_epoch": "2025-12-24T09:26:38.145984",
        "meta_mean_motion": 2.00566563,
        "meta_eccentricity": 0.00577599,
        "meta_inclination": 55.7172,
        "meta_ra_of_asc_node": 338.0907,
        "meta_arg_of_pericenter": 198.6314,
        "meta_mean_anomaly": 336.4409,
        "meta_ephemeris_type": 0,
        "meta_classification_type": "U",
        "meta_norad_cat_id": 44506,
        "meta_element_set_no": 999,
        "meta_rev_at_epoch": 4656,
        "meta_bstar": 0,
        "meta_mean_motion_dot": -6e-07,
        "meta_mean_motion_ddot": 0,
        "tle_line1": "1 44506U 19056A   25358.39349706 -.00000060  00000+0  00000+0 0  9999",
        "tle_line2": "2 44506  55.7172 338.0907 0057759 198.6314 336.4409  2.00566563 46566"
      },
      "geometry": {
        "type": "Point",
        "coordinates": [
          117.78681517317818,
          43.45786372303522
        ]
      }
    },
    {
      "type": "Feature",
      "properties": {
        "norad_id": 44542,
        "name": "BEIDOU-3 M24 (C46)",
        "group": "gnss",
        "lat": 27.37723072192645,
        "lon": -149.6201423614256,
        "alt_km": 21498.38941146785,
        "timestamp": "2025-12-25T07:41:09.967103+00:00",
        "meta_object_name": "BEIDOU-3 M24 (C46)",
        "meta_object_id": "2019-061A",
        "meta_epoch": "2025-12-24T04:40:53.254848",
        "meta_mean_motion": 1.86229374,
        "meta_eccentricity": 0.00095879,
        "meta_inclination": 54.4008,
        "meta_ra_of_asc_node": 188.6295,
        "meta_arg_of_pericenter": 26.2162,
        "meta_mean_anomaly": 333.8692,
        "meta_ephemeris_type": 0,
        "meta_classification_type": "U",
        "meta_norad_cat_id": 44542,
        "meta_element_set_no": 999,
        "meta_rev_at_epoch": 4253,
        "meta_bstar": 0,
        "meta_mean_motion_dot": 1.02e-06,
        "meta_mean_motion_ddot": 0,
        "tle_line1": "1 44542U 19061A   25358.19506082  .00000102  00000+0  00000+0 0  9991",
        "tle_line2": "2 44542  54.4008 188.6295 0009587  26.2162 333.8692  1.86229374 42539"
      },
      "geometry": {
        "type": "Point",
        "coordinates": [
          -149.6201423614256,
          27.37723072192645
        ]
      }
    },
    {
      "type": "Feature",
      "properties": {
        "norad_id": 44543,
        "name": "BEIDOU-3 M23 (C45)",
        "group": "gnss",
        "lat": -40.43792132519107,
        "lon": 150.9158526397496,
        "alt_km": 21529.98131379871,
        "timestamp": "2025-12-25T07:41:09.967114+00:00",
        "meta_object_name": "BEIDOU-3 M23 (C45)",
        "meta_object_id": "2019-061B",
        "meta_epoch": "2025-12-24T07:52:57.624672",
        "meta_mean_motion": 1.86227549,
        "meta_eccentricity": 0.00060312,
        "meta_inclination": 54.3996,
        "meta_ra_of_asc_node": 188.5933,
        "meta_arg_of_pericenter": 26.11,
        "meta_mean_anomaly": 336.0921,
        "meta_ephemeris_type": 0,
        "meta_classification_type": "U",
        "meta_norad_cat_id": 44543,
        "meta_element_set_no": 999,
        "meta_rev_at_epoch": 4254,
        "meta_bstar": 0,
        "meta_mean_motion_dot": 1.03e-06,
        "meta_mean_motion_ddot": 0,
        "tle_line1": "1 44543U 19061B   25358.32844473  .00000103  00000+0  00000+0 0  9997",
        "tle_line2": "2 44543  54.3996 188.5933 0006031  26.1100 336.0921  1.86227549 42548"
      },
      "geometry": {
        "type": "Point",
        "coordinates": [
          150.9158526397496,
          -40.43792132519107
        ]
      }
    },
    {
      "type": "Feature",
      "properties": {
        "norad_id": 44624,
        "name": "EUTELSAT 5 WEST B (EGNOS/PRN 121)",
        "group": "gnss",
        "lat": -0.046451565879348955,
        "lon": -155.66526423781778,
        "alt_km": 35781.319021984564,
        "timestamp": "2025-12-25T07:41:09.967129+00:00",
        "meta_object_name": "EUTELSAT 5 WEST B (EGNOS/PRN 121)",
        "meta_object_id": "2019-067A",
        "meta_epoch": "2025-12-24T21:38:07.024416",
        "meta_mean_motion": 1.00271315,
        "meta_eccentricity": 0.0003135,
        "meta_inclination": 0.063,
        "meta_ra_of_asc_node": 343.8095,
        "meta_arg_of_pericenter": 288.8779,
        "meta_mean_anomaly": 140.5133,
        "meta_ephemeris_type": 0,
        "meta_classification_type": "U",
        "meta_norad_cat_id": 44624,
        "meta_element_set_no": 999,
        "meta_rev_at_epoch": 2268,
        "meta_bstar": 0,
        "meta_mean_motion_dot": -2.1e-07,
        "meta_mean_motion_ddot": 0,
        "tle_line1": "1 44624U 19067A   25358.90147019 -.00000021  00000+0  00000+0 0  9999",
        "tle_line2": "2 44624   0.0630 343.8095 0003135 288.8779 140.5133  1.00271315 22689"
      },
      "geometry": {
        "type": "Point",
        "coordinates": [
          -155.66526423781778,
          -0.046451565879348955
        ]
      }
    }
  ]
}